OBJECT_NAME,OBJECT_ID,EPOCH,MEAN_MOTION,ECCENTRICITY,INCLINATION,RA_OF_ASC_NODE,ARG_OF_PERICENTER,MEAN_ANOMALY,EPHEMERIS_TYPE,CLASSIFICATION_TYPE,NORAD_CAT_ID,ELEMENT_SET_NO,REV_AT_EPOCH,BSTAR,MEAN_MOTION_DOT,MEAN_MOTION_DDOT
TIANMU-1 20,2023-208B,2026-06-14T06:09:05.745600,15.32726059,.00062607,97.4445,282.1731,345.7332,14.3732,0,U,58661,999,13697,.25464561E-3,.7973E-4,0
TIANMU-1 21,2023-208C,2026-06-14T07:32:31.367616,15.35032043,.00061811,97.4505,284.8996,335.9456,24.1498,0,U,58662,999,13712,.26639474E-3,.8978E-4,0
TIANMU-1 22,2023-208D,2026-06-14T06:17:49.051392,15.31022218,.00034922,97.4500,281.4854,14.7817,345.3525,0,U,58663,999,13688,.25589897E-3,.7593E-4,0
TIANMU-1 15,2024-004A,2026-06-14T06:44:26.709216,15.26997243,.00069978,97.4662,351.4709,12.7030,347.4384,0,U,58700,999,13533,.20853726E-3,.5454E-4,0
TIANMU-1 16,2024-004B,2026-06-14T06:28:11.521056,15.26722217,.00061285,97.4608,350.6998,17.9887,342.1568,0,U,58701,999,13533,.21581214E-3,.5599E-4,0
TIANMU-1 17,2024-004C,2026-06-14T07:41:37.368096,15.26722264,.00057956,97.4635,351.2346,23.9348,336.2159,0,U,58702,999,13533,.21562663E-3,.5594E-4,0
TIANMU-1 18,2024-004D,2026-06-14T07:08:19.170240,15.26979743,.00043264,97.4653,351.4651,24.5332,335.6112,0,U,58703,999,13533,.19475875E-3,.5084E-4,0
INSAT-3DS,2024-033A,2026-06-14T01:31:13.259424,1.00271698,.00009878,0.0434,126.8640,307.9444,292.4656,0,U,58990,999,4703,0,-.147E-5,0
METEOR-M2 4,2024-039A,2026-06-14T07:11:08.958336,14.22429309,.00071298,98.7009,124.6337,169.0569,191.0766,0,U,59051,999,11885,.1913404E-4,-.1E-7,0
GOES 19,2024-119A,2026-06-14T02:29:01.974048,1.00269897,.0000497,0.0099,94.5560,79.8207,50.0959,0,U,60133,999,693,0,-.239E-5,0
MTG-S1,2025-143A,2026-06-14T04:32:10.749984,1.00271737,.00009809,0.6060,338.2480,11.9645,336.8517,0,U,64723,999,338,0,-.23E-6,0
METOP-SGA1,2025-172A,2026-06-14T04:22:46.135488,14.21509311,.00009195,98.6644,224.9650,91.6519,268.4764,0,U,65159,999,4336,.39002574E-4,.42E-6,0
FENGYUN 3H,2025-219A,2026-06-14T01:57:19.443456,14.19919935,.00015896,98.6768,105.9110,78.0030,282.1325,0,U,65815,999,3694,.38438979E-4,.38E-6,0
