TIANMU-1 20             
1 58661U 23208B   26165.25631650  .00007973  00000+0  25465-3 0  9999
2 58661  97.4445 282.1731 0006260 345.7332  14.3732 15.32726059136972
TIANMU-1 21             
1 58662U 23208C   26165.31425194  .00008978  00000+0  26639-3 0  9991
2 58662  97.4505 284.8996 0006181 335.9456  24.1498 15.35032043137124
TIANMU-1 22             
1 58663U 23208D   26165.26237328  .00007593  00000+0  25590-3 0  9993
2 58663  97.4500 281.4854 0003492  14.7817 345.3525 15.31022218136881
TIANMU-1 15             
1 58700U 24004A   26165.28086469  .00005454  00000+0  20854-3 0  9992
2 58700  97.4662 351.4709 0006997  12.7030 347.4384 15.26997243135335
TIANMU-1 16             
1 58701U 24004B   26165.26957779  .00005599  00000+0  21581-3 0  9990
2 58701  97.4608 350.6998 0006128  17.9887 342.1568 15.26722217135333
TIANMU-1 17             
1 58702U 24004C   26165.32057139  .00005594  00000+0  21563-3 0  9994
2 58702  97.4635 351.2346 0005795  23.9348 336.2159 15.26722264135338
TIANMU-1 18             
1 58703U 24004D   26165.29744410  .00005084  00000+0  19476-3 0  9990
2 58703  97.4653 351.4651 0004326  24.5332 335.6112 15.26979743135337
INSAT-3DS               
1 58990U 24033A   26165.06334791 -.00000147  00000+0  00000+0 0  9997
2 58990   0.0434 126.8640 0000987 307.9444 292.4656  1.00271698 47038
METEOR-M2 4             
1 59051U 24039A   26165.29940924 -.00000001  00000+0  19134-4 0  9990
2 59051  98.7009 124.6337 0007129 169.0569 191.0766 14.22429309118855
GOES 19                 
1 60133U 24119A   26165.10349507 -.00000239  00000+0  00000+0 0  9992
2 60133   0.0099  94.5560 0000497  79.8207  50.0959  1.00269897  6933
MTG-S1                  
1 64723U 25143A   26165.18901331 -.00000023  00000+0  00000+0 0  9997
2 64723   0.6060 338.2480 0000980  11.9645 336.8517  1.00271737  3382
METOP-SGA1              
1 65159U 25172A   26165.18247842  .00000042  00000+0  39003-4 0  9993
2 65159  98.6644 224.9650 0000919  91.6519 268.4764 14.21509311 43363
FENGYUN 3H              
1 65815U 25219A   26165.08147504  .00000038  00000+0  38439-4 0  9994
2 65815  98.6768 105.9110 0001589  78.0030 282.1325 14.19919935 36945
